1 56728U 23068U   23145.58727592  .00000597  00000-0  69426-4 0  9999
2 56728  86.6794 138.2461 0013259 200.5727 159.4964 14.83405392   892